NORAD_CAT_ID,OBJECT_NAME,OBJECT_TYPE,EPOCH,MEAN_MOTION,ECCENTRICITY,INCLINATION,RA_OF_ASC_NODE,ARG_OF_PERICENTER,MEAN_ANOMALY,BSTAR,MEAN_MOTION_DOT,MEAN_MOTION_DDOT,TLE_LINE0,TLE_LINE1,TLE_LINE2,SEMIMAJOR_AXIS,PERIOD,APOGEE,PERIGEE,DECAYED
228,DELTA 1 DEB (YO),DEBRIS,2019-11-20 18:35:12,15.01204607,0.0014627000000000002,48.4294,92.706,87.522,272.7378,3.5244000000000003e-05,1.96e-06,0.0,0 DELTA 1 DEB (YO),1   228U 62002C   19324.77445368 +.00000196 +00000-0 +35244-4 0  9993,2   228 048.4294 092.7060 0014627 087.5220 272.7378 15.01204607079719,6941.318,95.92299999999999,573.336,553.03,0.0
228,DELTA 1 DEB (YO),DEBRIS,2019-11-21 05:46:07,15.01204877,0.0014617,48.4295,90.415,89.6672,270.5926,3.377e-05,1.76e-06,0.0,0 DELTA 1 DEB (YO),1   228U 62002C   19325.24036277  .00000176  00000-0  33770-4 0  9991,2   228  48.4295  90.4150 0014617  89.6672 270.5926 15.01204877103912,6941.316999999999,95.92299999999999,573.328,553.036,0.0
228,DELTA 1 DEB (YO),DEBRIS,2019-11-21 18:32:52,15.01205429,0.0014624,48.4296,87.7968,92.10600000000001,268.1538,3.4581999999999995e-05,1.87e-06,0.0,0 DELTA 1 DEB (YO),1   228U 62002C   19325.77282992 +.00000187 +00000-0 +34582-4 0  9990,2   228 048.4296 087.7968 0014624 092.1060 268.1538 15.01205429079869,6941.315,95.92299999999999,573.331,553.029,0.0
228,DELTA 1 DEB (YO),DEBRIS,2019-11-22 18:30:32,15.01206288,0.0014618,48.4298,82.8875,96.7039,263.5549,3.4925e-05,1.91e-06,0.0,0 DELTA 1 DEB (YO),1   228U 62002C   19326.77120535 +.00000191 +00000-0 +34925-4 0  9991,2   228 048.4298 082.8875 0014618 096.7039 263.5549 15.01206288080017,6941.312,95.92299999999999,573.3240000000002,553.031,0.0
228,DELTA 1 DEB (YO),DEBRIS,2019-11-24 12:02:28,15.01208133,0.0014609000000000002,48.4301,74.3782,104.73700000000001,255.5174,3.8797e-05,2.42e-06,0.0,0 DELTA 1 DEB (YO),1   228U 62002C   19328.50172073  .00000242  00000-0  38797-4 0  9996,2   228  48.4301  74.3782 0014609 104.7370 255.5174 15.01208133104409,6941.307,95.92299999999999,573.312,553.031,0.0
228,DELTA 1 DEB (YO),DEBRIS,2019-11-25 10:24:17,15.01209066,0.0014614,48.4302,69.7963,109.0456,251.2052,3.8424000000000003e-05,2.37e-06,0.0,0 DELTA 1 DEB (YO),1   228U 62002C   19329.43353563 +.00000237 +00000-0 +38424-4 0  9995,2   228 048.4302 069.7963 0014614 109.0456 251.2052 15.01209066080416,6941.304,95.92299999999999,573.313,553.025,0.0
228,DELTA 1 DEB (YO),DEBRIS,2019-11-26 15:09:28,15.01210103,0.0014618,48.4303,63.9053,114.5291,245.7158,3.5939e-05,2.05e-06,0.0,0 DELTA 1 DEB (YO),1   228U 62002C   19330.63158229  .00000205  00000-0  35939-4 0  9994,2   228  48.4303  63.9053 0014618 114.5291 245.7158 15.01210103104725,6941.3009999999995,95.92299999999999,573.312,553.019,0.0
228,DELTA 1 DEB (YO),DEBRIS,2019-11-27 15:07:07,15.01210903,0.001462,48.4305,58.9961,119.1818,241.05700000000002,3.4324e-05,1.84e-06,0.0,0 DELTA 1 DEB (YO),1   228U 62002C   19331.62995370 +.00000184 +00000-0 +34324-4 0  9993,2   228 048.4305 058.9961 0014620 119.1818 241.0570 15.01210903080748,6941.2980000000025,95.92299999999999,573.311,553.015,0.0
228,DELTA 1 DEB (YO),DEBRIS,2019-11-28 15:04:47,15.01211573,0.0014625999999999999,48.4306,54.0869,123.7965,236.4353,3.1575e-05,1.48e-06,0.0,0 DELTA 1 DEB (YO),1   228U 62002C   19332.62832457 +.00000148 +00000-0 +31575-4 0  9995,2   228 048.4306 054.0869 0014626 123.7965 236.4353 15.01211573080890,6941.2959999999985,95.92299999999999,573.313,553.009,0.0
228,DELTA 1 DEB (YO),DEBRIS,2019-11-29 02:15:41,15.01211971,0.001463,48.4307,51.7959,125.9167,234.3117,3.1203e-05,1.43e-06,0.0,0 DELTA 1 DEB (YO),1   228U 62002C   19333.09423070  .00000143  00000-0  31203-4 0  9997,2   228  48.4307  51.7959 0014630 125.9167 234.3117 15.01211971105095,6941.295,95.92200000000001,573.315,553.005,0.0
228,DELTA 1 DEB (YO),DEBRIS,2019-11-29 15:02:26,15.01212253,0.0014654000000000002,48.4307,49.1778,128.32299999999998,231.9013,2.9199999999999998e-05,1.17e-06,0.0,0 DELTA 1 DEB (YO),1   228U 62002C   19333.62669490 +.00000117 +00000-0 +29200-4 0  9999,2   228 048.4307 049.1778 0014654 128.3230 231.9013 15.01212253081049,6941.294,95.92200000000001,573.331,552.987,0.0
228,DELTA 1 DEB (YO),DEBRIS,2019-11-30 15:00:05,15.01212885,0.0014682,48.4308,44.2687,132.9016,227.3143,2.6686999999999997e-05,8.4e-07,0.0,0 DELTA 1 DEB (YO),1   228U 62002C   19334.62506451 +.00000084 +00000-0 +26687-4 0  9996,2   228 048.4308 044.2687 0014682 132.9016 227.3143 15.01212885081199,6941.2919999999995,95.92200000000001,573.3480000000002,552.966,0.0
228,DELTA 1 DEB (YO),DEBRIS,2019-12-01 10:10:12,15.01213389,0.0014708,48.4309,40.3413,136.638,223.5703,2.568e-05,7.1e-07,0.0,0 DELTA 1 DEB (YO),1   228U 62002C   19335.42375967  .00000071  00000-0  25680-4 0  9999,2   228  48.4309  40.3413 0014708 136.6380 223.5703 15.01213389105443,6941.291,95.92200000000001,573.365,552.946,0.0
228,DELTA 1 DEB (YO),DEBRIS,2019-12-01 14:57:44,15.01213442,0.0014709000000000002,48.4308,39.3596,137.5307,222.6758,2.4925e-05,6.1e-07,0.0,0 DELTA 1 DEB (YO),1   228U 62002C   19335.62343351 +.00000061 +00000-0 +24925-4 0  9993,2   228 048.4308 039.3596 0014709 137.5307 222.6758 15.01213442081344,6941.29,95.92200000000001,573.365,552.945,0.0
228,DELTA 1 DEB (YO),DEBRIS,2019-12-02 21:18:46,15.01214161,0.0014734000000000001,48.4309,33.1414,143.3179,216.8756,2.4416999999999997e-05,5.5e-07,0.0,0 DELTA 1 DEB (YO),1   228U 62002C   19336.88803369 +.00000055 +00000-0 +24417-4 0  9991,2   228 048.4309 033.1414 0014734 143.3179 216.8756 15.01214161081539,6941.288000000001,95.92200000000001,573.38,552.9259999999998,0.0
228,DELTA 1 DEB (YO),DEBRIS,2019-12-03 13:17:12,15.012144699999999,0.0014769,48.4309,29.8685,146.3517,213.8347,2.3559e-05,4.4e-07,0.0,0 DELTA 1 DEB (YO),1   228U 62002C   19337.55361252 +.00000044 +00000-0 +23559-4 0  9990,2   228 048.4309 029.8685 0014769 146.3517 213.8347 15.01214470081635,6941.2869999999975,95.92200000000001,573.404,552.901,0.0
228,DELTA 1 DEB (YO),DEBRIS,2019-12-04 19:38:13,15.01215222,0.0014792,48.4308,23.6502,152.10299999999995,208.06900000000002,2.2360999999999998e-05,2.8e-07,0.0,0 DELTA 1 DEB (YO),1   228U 62002C   19338.81821141 +.00000028 +00000-0 +22361-4 0  9990,2   228 048.4308 023.6502 0014792 152.1030 208.0690 15.01215222081829,6941.285,95.92200000000001,573.4169999999998,552.882,0.0
228,DELTA 1 DEB (YO),DEBRIS,2019-12-05 08:24:58,15.01215397,0.0014826,48.4308,21.0319,154.523,205.6427,2.0961999999999997e-05,1e-07,0.0,0 DELTA 1 DEB (YO),1   228U 62002C   19339.35067400  .00000010  00000-0  20962-4 0  9996,2   228  48.4308  21.0319 0014826 154.5230 205.6427 15.01215397106038,6941.284000000002,95.92200000000001,573.44,552.8580000000002,0.0
228,DELTA 1 DEB (YO),DEBRIS,2019-12-05 19:35:52,15.01215634,0.0014834000000000002,48.4308,18.741,156.627,203.5331,2.0578000000000002e-05,5e-08,0.0,0 DELTA 1 DEB (YO),1   228U 62002C   19339.81657856 +.00000005 +00000-0 +20578-4 0  9994,2   228 048.4308 018.7410 0014834 156.6270 203.5331 15.01215634081979,6941.284000000002,95.92200000000001,573.445,552.852,0.0
228,DELTA 1 DEB (YO),DEBRIS,2019-12-06 13:10:08,15.01215954,0.0014856,48.4307,15.1408,159.9298,200.2213,2.0825e-05,8e-08,0.0,0 DELTA 1 DEB (YO),1   228U 62002C   19340.54871429 +.00000008 +00000-0 +20825-4 0  9998,2   228 048.4307 015.1408 0014856 159.9298 200.2213 15.01215954082087,6941.283,95.92200000000001,573.46,552.836,0.0
228,DELTA 1 DEB (YO),DEBRIS,2019-12-07 11:31:57,15.012163699999999,0.0014887000000000001,48.4306,10.5588,164.1407,195.9985,2.1088000000000002e-05,1.1e-07,0.0,0 DELTA 1 DEB (YO),1   228U 62002C   19341.48052313  .00000011  00000-0  21088-4 0  9991,2   228  48.4306  10.5588 0014887 164.1407 195.9985 15.01216370106354,6941.281,95.92200000000001,573.48,552.813,0.0
228,DELTA 1 DEB (YO),DEBRIS,2019-12-08 11:29:36,15.01216883,0.0014927,48.4306,5.6494,168.6227,191.5037,2.1221e-05,1.3e-07,0.0,0 DELTA 1 DEB (YO),1   228U 62002C   19342.47888931 +.00000013 +00000-0 +21221-4 0  9995,2   228 048.4306 005.6494 0014927 168.6227 191.5037 15.01216883082373,6941.28,95.92200000000001,573.506,552.784,0.0
228,DELTA 1 DEB (YO),DEBRIS,2019-12-09 17:50:37,15.01217507,0.0014977999999999999,48.4306,359.4309,174.2875,185.8222,1.973e-05,-6e-08,0.0,0 DELTA 1 DEB (YO),1   228U 62002C   19343.74348575 -.00000006  00000-0  19730-4 0  9996,2   228  48.4306 359.4309 0014978 174.2875 185.8222 15.01217507106694,6941.278,95.92200000000001,573.539,552.746,0.0
228,DELTA 1 DEB (YO),DEBRIS,2019-12-10 11:24:53,15.01217862,0.0015007999999999998,48.4306,355.8307,177.5469,182.5531,2.0005e-05,-3e-08,0.0,0 DELTA 1 DEB (YO),1   228U 62002C   19344.47562033 -.00000003 +00000-0 +20005-4 0  9998,2   228 048.4306 355.8307 0015008 177.5469 182.5531 15.01217862082674,6941.276999999999,95.92200000000001,573.559,552.724,0.0
228,DELTA 1 DEB (YO),DEBRIS,2019-12-11 09:46:41,15.01218268,0.001503,48.4306,351.2487,181.7057,178.3818,2.0237e-05,0.0,0.0,0 DELTA 1 DEB (YO),1   228U 62002C   19345.40742781  .00000000  00000-0  20237-4 0  9995,2   228  48.4306 351.2487 0015030 181.7057 178.3818 15.01218268106947,6941.275,95.92200000000001,573.573,552.7080000000002,0.0
228,DELTA 1 DEB (YO),DEBRIS,2019-12-11 17:45:54,15.01218422,0.0015046,48.4306,349.6123,183.1978,176.8851,1.9995e-05,-3e-08,0.0,0 DELTA 1 DEB (YO),1   228U 62002C   19345.74021608 -.00000003 +00000-0 +19995-4 0  9993,2   228 048.4306 349.6123 0015046 183.1978 176.8851 15.01218422082866,6941.275,95.92200000000001,573.5840000000002,552.696,0.0
228,DELTA 1 DEB (YO),DEBRIS,2019-12-12 20:55:14,15.01218931,0.0015101,48.4305,344.0485,188.2028,171.865,1.9852e-05,-5e-08,0.0,0 DELTA 1 DEB (YO),1   228U 62002C   19346.87169619 -.00000005 +00000-0 +19852-4 0  9997,2   228 048.4305 344.0485 0015101 188.2028 171.8650 15.01218931083036,6941.273,95.92200000000001,573.62,552.656,0.0
